NORAD_CAT_ID,OBJECT_NAME,OBJECT_TYPE,EPOCH,MEAN_MOTION,ECCENTRICITY,INCLINATION,RA_OF_ASC_NODE,ARG_OF_PERICENTER,MEAN_ANOMALY,BSTAR,MEAN_MOTION_DOT,MEAN_MOTION_DDOT,TLE_LINE0,TLE_LINE1,TLE_LINE2,SEMIMAJOR_AXIS,PERIOD,APOGEE,PERIGEE,DECAYED
37853,RAX-2,PAYLOAD,2021-05-05 07:08:40,15.05212082,0.0164743,101.715,14.2687,219.0601,139.8622,7.6786e-05,1.322e-05,0.0,0 RAX-2,1 37853U 11061D   21125.29768612  .00001322  00000-0  76786-4 0  9993,2 37853 101.7150  14.2687 0164743 219.0601 139.8622 15.05212082519232,6928.9919999999975,95.66799999999999,665.007,436.70599999999996,0.0
37853,RAX-2,PAYLOAD,2021-05-06 10:15:55,15.05214455,0.0164727,101.715,15.9783,215.713,143.2974,6.5309e-05,1.099e-05,0.0,0 RAX-2,1 37853U 11061D   21126.42772745  .00001099  00000-0  65309-4 0  9991,2 37853 101.7150  15.9783 0164727 215.7130 143.2974 15.05214455519403,6928.984,95.667,664.9889999999998,436.71,0.0
37853,RAX-2,PAYLOAD,2021-05-07 05:24:34,15.05216287,0.016472900000000002,101.715,17.185,213.3467,145.7283,5.8476e-05,9.67e-06,0.0,0 RAX-2,1 37853U 11061D   21127.22540265  .00000967  00000-0  58476-4 0  9990,2 37853 101.7150  17.1850 0164729 213.3467 145.7283 15.05216287520004,6928.979,95.667,664.9839999999998,436.70300000000003,0.0
37853,RAX-2,PAYLOAD,2021-05-07 13:23:11,15.05216873,0.0164737,101.715,17.6879,212.3599,146.7426,5.4643999999999994e-05,8.92e-06,0.0,0 RAX-2,1 37853U 11061D   21127.55776716  .00000892  00000-0  54644-4 0  9998,2 37853 101.7150  17.6879 0164737 212.3599 146.7426 15.05216873519575,6928.977,95.667,664.988,436.69599999999997,0.0
37853,RAX-2,PAYLOAD,2021-05-07 14:58:54,15.05216991,0.016473599999999998,101.715,17.7884,212.1625,146.9456,5.3898999999999987e-05,8.78e-06,0.0,0 RAX-2,1 37853U 11061D   21127.62424008  .00000878  00000-0  53899-4 0  9995,2 37853 101.7150  17.7884 0164736 212.1625 146.9456 15.05216991519586,6928.977,95.667,664.987,436.69599999999997,0.0
37853,RAX-2,PAYLOAD,2021-05-08 13:18:59,15.05218454,0.016473500000000002,101.7149,19.1963,209.4011,149.7857,4.2798e-05,6.63e-06,0.0,0 RAX-2,1 37853U 11061D   21128.55486022  .00000663  00000-0  42798-4 0  9990,2 37853 101.7149  19.1963 0164735 209.4011 149.7857 15.05218454520208,6928.972,95.667,664.982,436.69300000000004,0.0
37853,RAX-2,PAYLOAD,2021-05-08 22:53:19,15.05219036,0.016472900000000002,101.7149,19.7996,208.2166,151.0047,3.8861e-05,5.86e-06,0.0,0 RAX-2,1 37853U 11061D   21128.95369737  .00000586  00000-0  38861-4 0  9997,2 37853 101.7149  19.7996 0164729 208.2166 151.0047 15.05219036519786,6928.97,95.667,664.9760000000001,436.695,0.0
37853,RAX-2,PAYLOAD,2021-05-09 05:16:12,15.05219443,0.0164722,101.7148,20.2019,207.4271,151.8175,3.637e-05,5.38e-06,0.0,0 RAX-2,1 37853U 11061D   21129.21958870  .00000538  00000-0  36370-4 0  9999,2 37853 101.7148  20.2019 0164722 207.4271 151.8175 15.05219443519826,6928.969,95.667,664.97,436.699,0.0
37853,RAX-2,PAYLOAD,2021-05-09 13:14:48,15.05219964,0.0164724,101.7147,20.7047,206.4428,152.8309,3.4315e-05,4.98e-06,0.0,0 RAX-2,1 37853U 11061D   21129.55195280  .00000498  00000-0  34315-4 0  9996,2 37853 101.7147  20.7047 0164724 206.4428 152.8309 15.05219964519879,6928.968000000003,95.667,664.9689999999998,436.69599999999997,0.0
37853,RAX-2,PAYLOAD,2021-05-09 16:26:15,15.05220151,0.0164723,101.7147,20.9058,206.0488,153.2367,3.3345e-05,4.79e-06,0.0,0 RAX-2,1 37853U 11061D   21129.68489847  .00000479  00000-0  33345-4 0  9996,2 37853 101.7147  20.9058 0164723 206.0488 153.2367 15.05220151520370,6928.967,95.667,664.9680000000002,436.69599999999997,0.0
37853,RAX-2,PAYLOAD,2021-05-10 06:47:44,15.05220989,0.016471299999999998,101.7146,21.8108,204.2711,155.0679,3.0220999999999997e-05,4.19e-06,0.0,0 RAX-2,1 37853U 11061D   21130.28315395  .00000419  00000-0  30221-4 0  9994,2 37853 101.7146  21.8108 0164713 204.2711 155.0679 15.05220989519983,6928.964,95.667,664.9580000000002,436.7,0.0
37853,RAX-2,PAYLOAD,2021-05-10 22:44:57,15.05221932,0.016471200000000002,101.7144,22.8164,202.2995,157.0998,2.838e-05,3.83e-06,0.0,0 RAX-2,1 37853U 11061D   21130.94788204  .00000383  00000-0  28380-4 0  9993,2 37853 101.7144  22.8164 0164712 202.2995 157.0998 15.05221932520083,6928.9619999999995,95.667,664.955,436.69800000000004,0.0
37853,RAX-2,PAYLOAD,2021-05-11 16:17:52,15.05223213,0.016470699999999998,101.7142,23.9225,200.1344,159.3321,3.0104000000000002e-05,4.17e-06,0.0,0 RAX-2,1 37853U 11061D   21131.67908276  .00000417  00000-0  30104-4 0  9992,2 37853 101.7142  23.9225 0164707 200.1344 159.3321 15.05223213520191,6928.958000000001,95.667,664.947,436.69800000000004,0.0
37853,RAX-2,PAYLOAD,2021-05-12 05:03:38,15.05223446,0.0164709,101.7141,24.726999999999997,198.5577,160.9583,2.6062e-05,3.38e-06,0.0,0 RAX-2,1 37853U 11061D   21132.21086523  .00000338  00000-0  26062-4 0  9995,2 37853 101.7141  24.7270 0164709 198.5577 160.9583 15.05223446520757,6928.9569999999985,95.667,664.948,436.69599999999997,0.0
37853,RAX-2,PAYLOAD,2021-05-12 14:37:58,15.05225944,0.0164702,101.7139,25.3303,197.3774,162.1761,4.4503000000000004e-05,6.96e-06,0.0,0 RAX-2,1 37853U 11061D   21132.60970146  .00000696  00000-0  44503-4 0  9998,2 37853 101.7139  25.3303 0164702 197.3774 162.1761 15.05225944520338,6928.949000000001,95.667,664.935,436.69300000000004,0.0
37853,RAX-2,PAYLOAD,2021-05-12 16:13:41,15.05226079,0.0164702,101.7139,25.4308,197.1806,162.3791,4.487100000000001e-05,7.04e-06,0.0,0 RAX-2,1 37853U 11061D   21132.67617419  .00000704  00000-0  44871-4 0  9994,2 37853 101.7139  25.4308 0164702 197.1806 162.3791 15.05226079520344,6928.949000000001,95.667,664.935,436.69300000000004,0.0
37853,RAX-2,PAYLOAD,2021-05-13 16:09:30,15.05228285,0.01647,101.7137,26.9392,194.2258,165.4286,5.1183999999999996e-05,8.26e-06,0.0,0 RAX-2,1 37853U 11061D   21133.67326412  .00000826  00000-0  51184-4 0  9995,2 37853 101.7137  26.9392 0164700 194.2258 165.4286 15.05228285520971,6928.941999999999,95.667,664.927,436.68699999999995,0.0
37853,RAX-2,PAYLOAD,2021-05-14 06:30:59,15.05229521,0.0164704,101.7135,27.8441,192.4524,167.2595,5.4078e-05,8.83e-06,0.0,0 RAX-2,1 37853U 11061D   21134.27151769  .00000883  00000-0  54078-4 0  9991,2 37853 101.7135  27.8441 0164704 192.4524 167.2595 15.05229521520588,6928.938,95.666,664.926,436.681,0.0
37853,RAX-2,PAYLOAD,2021-05-14 14:29:35,15.05229861,0.0164703,101.7135,28.3469,191.46900000000002,168.275,5.300800000000001e-05,8.62e-06,0.0,0 RAX-2,1 37853U 11061D   21134.60388087  .00000862  00000-0  53008-4 0  9992,2 37853 101.7135  28.3469 0164703 191.4690 168.2750 15.05229861520633,6928.937,95.666,664.924,436.681,0.0
37853,RAX-2,PAYLOAD,2021-05-15 03:15:21,15.05231148,0.0164708,101.7134,29.1513,189.8925,169.9032,5.6848e-05,9.37e-06,0.0,0 RAX-2,1 37853U 11061D   21135.13566137  .00000937  00000-0  56848-4 0  9993,2 37853 101.7134  29.1513 0164708 189.8925 169.9032 15.05231148521192,6928.933000000001,95.666,664.923,436.673,0.0
37853,RAX-2,PAYLOAD,2021-05-15 16:01:06,15.05233343,0.016470500000000002,101.7133,29.9556,188.3159,171.5317,6.7475e-05,1.143e-05,0.0,0 RAX-2,1 37853U 11061D   21135.66744098  .00001143  00000-0  67475-4 0  9993,2 37853 101.7133  29.9556 0164705 188.3159 171.5317 15.05233343520795,6928.927,95.666,664.914,436.66900000000004,0.0
37853,RAX-2,PAYLOAD,2021-05-16 12:45:28,15.05235013,0.016471200000000002,101.7132,31.2628,185.7574,174.1749,6.7197e-05,1.138e-05,0.0,0 RAX-2,1 37853U 11061D   21136.53158266  .00001138  00000-0  67197-4 0  9991,2 37853 101.7132  31.2628 0164712 185.7574 174.1749 15.05235013520929,6928.9209999999985,95.666,664.914,436.659,0.0
37853,RAX-2,PAYLOAD,2021-05-16 15:56:55,15.05235271,0.016471400000000004,101.7132,31.4638,185.3604,174.585,6.703899999999999e-05,1.135e-05,0.0,0 RAX-2,1 37853U 11061D   21136.66452750  .00001135  00000-0  67039-4 0  9992,2 37853 101.7132  31.4638 0164714 185.3604 174.5850 15.05235271520949,6928.9209999999985,95.666,664.915,436.657,0.0
37853,RAX-2,PAYLOAD,2021-05-17 22:15:36,15.05238877,0.0164727,101.7131,33.3742,181.6166,178.4534,7.1554e-05,1.223e-05,0.0,0 RAX-2,1 37853U 11061D   21137.92750045  .00001223  00000-0  71554-4 0  9995,2 37853 101.7131  33.3742 0164727 181.6166 178.4534 15.05238877521130,6928.91,95.666,664.9119999999998,436.63699999999994,0.0
37853,RAX-2,PAYLOAD,2021-05-18 06:14:11,15.05240293,0.0164738,101.7131,33.8769,180.6289,179.4741,7.571100000000001e-05,1.304e-05,0.0,0 RAX-2,1 37853U 11061D   21138.25986099  .00001304  00000-0  75711-4 0  9991,2 37853 101.7131  33.8769 0164738 180.6289 179.4741 15.05240293521665,6928.905,95.666,664.916,436.625,0.0
37853,RAX-2,PAYLOAD,2021-05-18 12:37:04,15.05241728,0.0164737,101.7131,34.2791,179.8435,180.2857,8.125399999999999e-05,1.412e-05,0.0,0 RAX-2,1 37853U 11061D   21138.52574898  .00001412  00000-0  81254-4 0  9990,2 37853 101.7131  34.2791 0164737 179.8435 180.2857 15.05241728521221,6928.901,95.666,664.91,436.621,0.0
37853,RAX-2,PAYLOAD,2021-05-18 15:48:31,15.05242117,0.016474400000000004,101.7131,34.4801,179.4487,180.6936,8.109399999999999e-05,1.409e-05,0.0,0 RAX-2,1 37853U 11061D   21138.65869309  .00001409  00000-0  81094-4 0  9996,2 37853 101.7131  34.4801 0164744 179.4487 180.6936 15.05242117521243,6928.9,95.666,664.914,436.615,0.0
37853,RAX-2,PAYLOAD,2021-05-19 10:57:09,15.05245287,0.0164733,101.7131,35.6868,177.0858,183.1353,8.6945e-05,1.523e-05,0.0,0 RAX-2,1 37853U 11061D   21139.45635646  .00001523  00000-0  86945-4 0  9997,2 37853 101.7131  35.6868 0164733 177.0858 183.1353 15.05245287521841,6928.89,95.665,664.8969999999998,436.61300000000006,0.0
37853,RAX-2,PAYLOAD,2021-05-19 15:44:18,15.052459099999998,0.0164732,101.7131,35.9884,176.4949,183.7459,8.6481e-05,1.514e-05,0.0,0 RAX-2,1 37853U 11061D   21139.65577210  .00001514  00000-0  86481-4 0  9996,2 37853 101.7131  35.9884 0164732 176.4949 183.7459 15.05245910521391,6928.888000000001,95.665,664.8939999999999,436.61199999999997,0.0
